{
  "norad_id": 48327,
  "name": "STARLINK-2502",
  "history": [
    {
      "epoch": "2026-03-28T11:56:12.691968Z",
      "apogee_km": 478.89190850008436,
      "perigee_km": 476.49099737586494,
      "latitude_deg": 8.840205965083701e-06,
      "longitude_deg": 8.582358243110365,
      "height_km": 478.71448427915607,
      "semi_major_axis_km": 6855.828452937974,
      "eccentricity": 0.0001751,
      "inclination_deg": 53.157,
      "raan_deg": 13.5522,
      "arg_perigee_deg": 96.0377,
      "mean_anomaly_deg": 264.0823,
      "mean_motion_rev_day": 15.29370993
    },
    {
      "epoch": "2026-03-29T02:03:08.108928Z",
      "apogee_km": 478.69094558341385,
      "perigee_km": 476.6040447830801,
      "latitude_deg": -5.34104067451755e-05,
      "longitude_deg": 153.541409087865,
      "height_km": 478.85954835656685,
      "semi_major_axis_km": 6855.784495183247,
      "eccentricity": 0.0001522,
      "inclination_deg": 53.1557,
      "raan_deg": 10.8219,
      "arg_perigee_deg": 107.5711,
      "mean_anomaly_deg": 252.5455,
      "mean_motion_rev_day": 15.29385702
    },
    {
      "epoch": "2026-03-30T04:42:55.827936Z",
      "apogee_km": 478.7101597817191,
      "perigee_km": 476.8247860516676,
      "latitude_deg": -1.0957146475881383e-05,
      "longitude_deg": 107.34309122973337,
      "height_km": 478.8952929561751,
      "semi_major_axis_km": 6855.9044729166935,
      "eccentricity": 0.0001375,
      "inclination_deg": 53.1562,
      "raan_deg": 5.6674,
      "arg_perigee_deg": 104.1579,
      "mean_anomaly_deg": 255.9574,
      "mean_motion_rev_day": 15.29345556
    },
    {
      "epoch": "2026-03-30T04:42:55.828800Z",
      "apogee_km": 478.7100226636303,
      "perigee_km": 476.8249231697573,
      "latitude_deg": -9.167169238192149e-06,
      "longitude_deg": 107.3430889536713,
      "height_km": 478.8952594182689,
      "semi_major_axis_km": 6855.9044729166935,
      "eccentricity": 0.00013748,
      "inclination_deg": 53.1562,
      "raan_deg": 5.6674,
      "arg_perigee_deg": 104.1579,
      "mean_anomaly_deg": 255.9574,
      "mean_motion_rev_day": 15.29345556
    },
    {
      "epoch": "2026-03-30T21:58:05.265408Z",
      "apogee_km": 478.53496023365096,
      "perigee_km": 476.8912016182485,
      "latitude_deg": 2.0691598219844553e-05,
      "longitude_deg": -155.49004714503275,
      "height_km": 478.78041511843156,
      "semi_major_axis_km": 6855.850080925949,
      "eccentricity": 0.00011988,
      "inclination_deg": 53.1554,
      "raan_deg": 2.3321,
      "arg_perigee_deg": 101.9341,
      "mean_anomaly_deg": 258.1794,
      "mean_motion_rev_day": 15.29363756
    },
    {
      "epoch": "2026-03-31T21:29:40.142400Z",
      "apogee_km": 478.8785198903579,
      "perigee_km": 476.67365824091485,
      "latitude_deg": -8.200738728928348e-06,
      "longitude_deg": -153.8961811752879,
      "height_km": 479.13044010182114,
      "semi_major_axis_km": 6855.913089065636,
      "eccentricity": 0.0001608,
      "inclination_deg": 53.1572,
      "raan_deg": 357.7875,
      "arg_perigee_deg": 114.5009,
      "mean_anomaly_deg": 245.6159,
      "mean_motion_rev_day": 15.29342673
    }
  ]
}